# Made by eph2tle, compiled Apr  1 2024 16:36:29
# Run at Tue Apr  2 21:13:55 2024
#
# No updates (will re-enter over South Atlantic on 2024 Apr 24)
# Max error 0.05
#
#    The following TLEs (Two-Line Elements) were generated by fitting
# a numerically-integrated ephemeris,  based on the orbit given below,
# to the SDP4/SGP4 models.  Each TLE is good for the interval between
# its epoch and the epoch of the subsequent TLE (usually one day).
# The maximum deviation between the numerically integrated ephemerides
# and the TLE-based ephemeris, in kilometers,  is given for each TLE
# as the "worst residual".
#
#    This fitting is done using the 'eph2tle' code packaged with Find_Orb.
# The code has details on how the TLEs were computed :
#
#    https://github.com/Bill-Gray/find_orb/eph2tle.cpp
#
#    Be warned:  the error given is that between the numerically
# integrated ephems and the TLE model.  There will usually be at
# least some additional difference between the ephems and the actual
# motion of the satellite,  especially if the ephemerides are based
# on a short arc.  If the following orbital elements say something
# like "[based on] 10 observations 2015 Jan. 1-13",  and the TLEs
# are for 2015 May,  the extrapolation may be tenuous at best.  If
# your application requires a specific level of accuracy,  you may
# want to contact me;  I can give you some idea as to the fit of the
# underlying data (and possibly TLEs based on newer data).
#
#   You can usually find the underlying observational data,  and the
# fitted orbit,  residuals,  ephemerides,  and sometimes some comments
# about the object,  among the pages listed at
#
#    https://www.projectpluto.com/pluto/mpecs/pseudo.htm
#
#    Also,  if you use a TLE outside the "correct" time range (between
# its MJD and that of the next TLE),  all bets are off.  I've carefully
# computed and minimized the worst error over the "correct" time frame,
# but the ephemeris may (or may not) diverge wildly outside of it.
#
# Ephem range: 60389.000000 60424.000000 1.000000
# Created Tue Apr  2 21:13:50 2024
# Ephemeris start: 20 Mar 2024  0:00:00
# Ephemeris end:   24 Apr 2024  0:00:00
# Times are all TDT
# Positions/velocities are in equatorial J2000
# Orbital elements:  2024-051B = NORAD 59277 = CZ-8 Y3 Stage 2
#    Perigee 2024 Apr 1.380675 +/- 6.76e-6 TT =  9:08:10.3 (JD 2460401.880675)
# Epoch 2024 Apr  2.0 TT = JDT 2460402.5                           Find_Orb
# M  19.570612047 +/- 0.00022         (J2000 equator)
# n  31.599909410 +/- 1.33e-5         Peri.  357.850955 +/- 0.000026
# a213868.2329 +/- 0.0598             Node     4.105291 +/- 0.000016
# e   0.95099343 +/- 1.49e-7          Incl.   37.291078 +/- 0.00008
# P  11.3922d                H 27.51  G  0.15   U  5.2
# q 10480.94676 +/- 0.0342    Q 417255.5190 +/- 0.0952
# 74 of 90 observations 2024 Mar. 21-Apr. 2; mean residual 0".302
#
# 1 NoradU COSPAR   Epoch.epoch     dn/dt/2  d2n/dt2/6 BSTAR    T El# C
# 2 NoradU Inclina RAAscNode Eccent  ArgPeri MeanAno  MeanMotion Rev# C

# Worst residual: 147.91 km
# MJD 60389.000000 (2024 Mar 20  0:00)
2024-051B = NORAD 59277 = CZ-8 Y3 Stage 2
1 59277U 24051B   24080.49919926  .00000000  00000-0  00000-0 0 22855
2 59277 016.3583 175.4530 9572578 187.4964 014.0062 00.09718506    04

# Worst residual: 37.01 km
# MJD 60390.000000 (2024 Mar 21  0:00)
2024-051B = NORAD 59277 = CZ-8 Y3 Stage 2
1 59277U 24051B   24081.49919926  .00000000  00000-0  00000-0 0 22856
2 59277 016.8577 175.2798 9573070 187.4582 050.8007 00.10055903    04

# Worst residual: 34.35 km
# MJD 60391.000000 (2024 Mar 22  0:00)
2024-051B = NORAD 59277 = CZ-8 Y3 Stage 2
1 59277U 24051B   24082.49919926  .00000000  00000-0  00000-0 0 22857
2 59277 017.6642 175.1398 9581808 187.4433 087.7084 00.10136224    04

# Worst residual: 126.52 km
# MJD 60392.000000 (2024 Mar 23  0:00)
2024-051B = NORAD 59277 = CZ-8 Y3 Stage 2
1 59277U 24051B   24083.49919926  .00000000  00000-0  00000-0 0 22858
2 59277 020.9539 175.3789 9615396 186.9654 124.5374 00.10176497    09

# Worst residual: 1421.42 km
# MJD 60393.000000 (2024 Mar 24  0:00)
2024-051B = NORAD 59277 = CZ-8 Y3 Stage 2
1 59277U 24051B   24084.49919926  .00000000  00000-0  00000-0 0 22859
2 59277 042.5694 177.6624 9758898 184.8633 152.1872 00.10054186    03

# Worst residual: 839.03 km
# MJD 60394.000000 (2024 Mar 25  0:00)
2024-051B = NORAD 59277 = CZ-8 Y3 Stage 2
1 59277U 24051B   24085.49919926  .00000000  00000-0  00000-0 0 22850
2 59277 035.3280 004.5987 9736776 357.3523 138.1738 00.09047721    00

# Max error 0.2

# Worst residual: 117.26 km
# MJD 60395.000000 (2024 Mar 26  0:00)
2024-051B = NORAD 59277 = CZ-8 Y3 Stage 2
1 59277U 24051B   24086.49919926  .00000000  00000-0  00000-0 0 22851
2 59277 036.0914 004.4572 9461749 358.2841 171.8661 00.08919609    00

# Worst residual: 52.51 km
# MJD 60396.000000 (2024 Mar 27  0:00)
2024-051B = NORAD 59277 = CZ-8 Y3 Stage 2
1 59277U 24051B   24087.49919926  .00000000  00000-0  00000-0 0 22852
2 59277 035.7601 004.4651 9399253 358.1260 205.7391 00.08878165    09

# Worst residual: 28.53 km
# MJD 60397.000000 (2024 Mar 28  0:00)
2024-051B = NORAD 59277 = CZ-8 Y3 Stage 2
1 59277U 24051B   24088.49919926  .00000000  00000-0  00000-0 0 22853
2 59277 035.6440 004.4535 9385143 358.0175 238.6448 00.08845034    04

# Worst residual: 10.38 km
# MJD 60398.000000 (2024 Mar 29  0:00)
2024-051B = NORAD 59277 = CZ-8 Y3 Stage 2
1 59277U 24051B   24089.49919926  .00000000  00000-0  00000-0 0 22854
2 59277 035.6191 004.4378 9383936 357.9987 270.7673 00.08821312    09

# Worst residual: 12.75 km
# MJD 60399.000000 (2024 Mar 30  0:00)
2024-051B = NORAD 59277 = CZ-8 Y3 Stage 2
1 59277U 24051B   24090.49919926  .00000000  00000-0  00000-0 0 22856
2 59277 035.6251 004.4222 9379393 357.9855 302.3133 00.08816609    06

# Worst residual: 31.35 km
# MJD 60400.000000 (2024 Mar 31  0:00)
2024-051B = NORAD 59277 = CZ-8 Y3 Stage 2
1 59277U 24051B   24091.49919926  .00000000  00000-0  00000-0 0 22857
2 59277 035.6267 004.3966 9367332 357.8805 333.6327 00.08847739    01

# Worst residual: 37.69 km
# MJD 60401.000000 (2024 Apr  1  0:00)
2024-051B = NORAD 59277 = CZ-8 Y3 Stage 2
1 59277U 24051B   24092.49919926  .00000000  00000-0  00000-0 0 22858
2 59277 035.6420 004.3604 9356066 357.6662 005.2618 00.08914092    04

# Worst residual: 27.63 km
# MJD 60402.000000 (2024 Apr  2  0:00)
2024-051B = NORAD 59277 = CZ-8 Y3 Stage 2
1 59277U 24051B   24093.49919926  .00000000  00000-0  00000-0 0 22859
2 59277 035.6679 004.3160 9369131 357.4992 036.7212 00.08817754    04

# Worst residual: 21.85 km
# MJD 60403.000000 (2024 Apr  3  0:00)
2024-051B = NORAD 59277 = CZ-8 Y3 Stage 2
1 59277U 24051B   24094.49919926  .00000000  00000-0  00000-0 0 22850
2 59277 035.7079 004.2807 9380600 357.4667 067.6174 00.08754922    06

# Worst residual: 14.53 km
# MJD 60404.000000 (2024 Apr  4  0:00)
2024-051B = NORAD 59277 = CZ-8 Y3 Stage 2
1 59277U 24051B   24095.49919926  .00000000  00000-0  00000-0 0 22851
2 59277 035.6958 004.2747 9380087 357.5521 098.3297 00.08718486    05

# Worst residual: 14.41 km
# MJD 60405.000000 (2024 Apr  5  0:00)
2024-051B = NORAD 59277 = CZ-8 Y3 Stage 2
1 59277U 24051B   24096.49919926  .00000000  00000-0  00000-0 0 22852
2 59277 035.6397 004.2793 9368052 357.6640 129.2118 00.08701793    03

# Worst residual: 9.95 km
# MJD 60406.000000 (2024 Apr  6  0:00)
2024-051B = NORAD 59277 = CZ-8 Y3 Stage 2
1 59277U 24051B   24097.49919926  .00000000  00000-0  00000-0 0 22853
2 59277 035.5807 004.2802 9354448 357.7194 160.4354 00.08696660    03

# Worst residual: 12.91 km
# MJD 60407.000000 (2024 Apr  7  0:00)
2024-051B = NORAD 59277 = CZ-8 Y3 Stage 2
1 59277U 24051B   24098.49919926  .00000000  00000-0  00000-0 0 22854
2 59277 035.5441 004.2740 9350716 357.7240 191.9053 00.08695976    08

# Worst residual: 14.83 km
# MJD 60408.000000 (2024 Apr  8  0:00)
2024-051B = NORAD 59277 = CZ-8 Y3 Stage 2
1 59277U 24051B   24099.49919926  .00000000  00000-0  00000-0 0 22855
2 59277 035.5649 004.2638 9360478 357.7560 223.3480 00.08697564    04

# Worst residual: 16.29 km
# MJD 60409.000000 (2024 Apr  9  0:00)
2024-051B = NORAD 59277 = CZ-8 Y3 Stage 2
1 59277U 24051B   24100.49919926  .00000000  00000-0  00000-0 0 22858
2 59277 035.6261 004.2564 9376936 357.8714 254.5122 00.08705742    08

# Worst residual: 18.69 km
# MJD 60410.000000 (2024 Apr 10  0:00)
2024-051B = NORAD 59277 = CZ-8 Y3 Stage 2
1 59277U 24051B   24101.49919926  .00000000  00000-0  00000-0 0 22859
2 59277 035.6920 004.2514 9388167 358.0336 285.3449 00.08730318    08

# Worst residual: 25.81 km
# MJD 60411.000000 (2024 Apr 11  0:00)
2024-051B = NORAD 59277 = CZ-8 Y3 Stage 2
1 59277U 24051B   24102.49919926  .00000000  00000-0  00000-0 0 22850
2 59277 035.7280 004.2369 9385849 358.1243 316.0545 00.08785301    09

# Worst residual: 74.83 km
# MJD 60412.000000 (2024 Apr 12  0:00)
2024-051B = NORAD 59277 = CZ-8 Y3 Stage 2
1 59277U 24051B   24103.49919926  .00000000  00000-0  00000-0 0 22851
2 59277 035.7371 004.1947 9369206 358.0022 347.0300 00.08909523    01

# Worst residual: 44.75 km
# MJD 60413.000000 (2024 Apr 13  0:00)
2024-051B = NORAD 59277 = CZ-8 Y3 Stage 2
1 59277U 24051B   24104.49919926  .00000000  00000-0  00000-0 0 22852
2 59277 035.7275 004.1403 9363136 357.7835 018.7730 00.08827132    09

# Worst residual: 12.43 km
# MJD 60414.000000 (2024 Apr 14  0:00)
2024-051B = NORAD 59277 = CZ-8 Y3 Stage 2
1 59277U 24051B   24105.49919926  .00000000  00000-0  00000-0 0 22853
2 59277 035.7454 004.1319 9366161 357.7671 050.3549 00.08836268    03

# Worst residual: 4.51 km
# MJD 60415.000000 (2024 Apr 15  0:00)
2024-051B = NORAD 59277 = CZ-8 Y3 Stage 2
1 59277U 24051B   24106.49919926  .00000000  00000-0  00000-0 0 22854
2 59277 035.7652 004.1205 9373318 357.7155 081.9785 00.08844758    01

# Worst residual: 13.79 km
# MJD 60416.000000 (2024 Apr 16  0:00)
2024-051B = NORAD 59277 = CZ-8 Y3 Stage 2
1 59277U 24051B   24107.49919926  .00000000  00000-0  00000-0 0 22855
2 59277 035.7531 004.1196 9373433 357.7183 113.8104 00.08856470    09

# Worst residual: 27.44 km
# MJD 60417.000000 (2024 Apr 17  0:00)
2024-051B = NORAD 59277 = CZ-8 Y3 Stage 2
1 59277U 24051B   24108.49919926  .00000000  00000-0  00000-0 0 22856
2 59277 035.7429 004.1166 9369629 357.7070 146.1115 00.08872768    08

# Worst residual: 44.09 km
# MJD 60418.000000 (2024 Apr 18  0:00)
2024-051B = NORAD 59277 = CZ-8 Y3 Stage 2
1 59277U 24051B   24109.49919926  .00000000  00000-0  00000-0 0 22857
2 59277 035.7690 004.1097 9373453 357.6407 179.0025 00.08887753    09

# Worst residual: 62.10 km
# MJD 60419.000000 (2024 Apr 19  0:00)
2024-051B = NORAD 59277 = CZ-8 Y3 Stage 2
1 59277U 24051B   24110.49919926  .00000000  00000-0  00000-0 0 22859
2 59277 035.9917 004.1016 9404596 357.5877 212.4803 00.08897207    08

# Worst residual: 191.19 km
# MJD 60420.000000 (2024 Apr 20  0:00)
2024-051B = NORAD 59277 = CZ-8 Y3 Stage 2
1 59277U 24051B   24111.49919926  .00000000  00000-0  00000-0 0 22850
2 59277 036.7476 004.1515 9502575 357.9151 245.9419 00.08921752    03

# Worst residual: 293.39 km
# MJD 60421.000000 (2024 Apr 21  0:00)
2024-051B = NORAD 59277 = CZ-8 Y3 Stage 2
1 59277U 24051B   24112.49919926  .00000000  00000-0  00000-0 0 22851
2 59277 038.5360 004.3777 9672576 359.5633 274.6637 00.09211556    05

# Worst residual: 77.05 km
# MJD 60422.000000 (2024 Apr 22  0:00)
2024-051B = NORAD 59277 = CZ-8 Y3 Stage 2
1 59277U 24051B   24113.49919926  .00000000  00000-0  00000-0 0 22852
2 59277 038.3478 004.2597 9710197 000.6004 303.1208 00.09645976    09

# Worst residual: 140.30 km
# MJD 60423.000000 (2024 Apr 23  0:00)
2024-051B = NORAD 59277 = CZ-8 Y3 Stage 2
1 59277U 24051B   24114.49919926  .00000000  00000-0  00000-0 0 22853
2 59277 038.1277 004.1700 9706412 000.5203 338.1205 00.09520739    08
Avg worst resid: 115.98 km
Worst residual in entire run: 1421.42 km on MJD 60393.0
       1     3     10    30    100   300   1K    3K    10K   km
     0     0     2    15    10     6     1     1     0     0
